[{"OBJECT_NAME":"SPAWAR-CAL-R","OBJECT_ID":"2018-099U","EPOCH":"2026-03-08T15:37:40.202400","MEAN_MOTION":15.05212097,"ECCENTRICITY":0.00197014,"INCLINATION":97.4524,"RA_OF_ASC_NODE":111.5817,"ARG_OF_PERICENTER":348.9052,"MEAN_ANOMALY":11.1737,"EPHEMERIS_TYPE":0,"CLASSIFICATION_TYPE":"U","NORAD_CAT_ID":43776,"ELEMENT_SET_NO":999,"REV_AT_EPOCH":39687,"BSTAR":0.00025335573,"MEAN_MOTION_DOT":3.57e-5,"MEAN_MOTION_DDOT":0},{"OBJECT_NAME":"STARLINK-4268","OBJECT_ID":"2022-083BD","EPOCH":"2026-03-09T11:07:28.036416","MEAN_MOTION":15.08833641,"ECCENTRICITY":0.00014905,"INCLINATION":53.2166,"RA_OF_ASC_NODE":130.0462,"ARG_OF_PERICENTER":87.0971,"MEAN_ANOMALY":273.0192,"EPHEMERIS_TYPE":0,"CLASSIFICATION_TYPE":"U","NORAD_CAT_ID":53183,"ELEMENT_SET_NO":999,"REV_AT_EPOCH":20180,"BSTAR":-1.6449205e-5,"MEAN_MOTION_DOT":-5.5e-6,"MEAN_MOTION_DDOT":0}]
